GLOBALSTAR M067         
1 32263U 07048A   24233.19599986 -.00000078  00000+0  14543-3 0  9990
2 32263  51.9704 196.6440 0001130  54.2789  50.2049 12.40652820772369
GLOBALSTAR M070         
1 32264U 07048B   24232.52308488 -.00000053  00000+0  28200-3 0  9990
2 32264  51.9772 327.4835 0000896 126.6463 246.0952 12.62297811776550
GLOBALSTAR M066         
1 32265U 07048C   24232.91077611 -.00000096  00000+0  38299-4 0  9992
2 32265  51.9658 188.9798 0001244 274.5016 119.8950 12.58439971778813
GLOBALSTAR M068         
1 32266U 07048D   24232.53558735 -.00000077  00000+0  14899-3 0  9990
2 32266  51.9878 141.7734 0000554 155.1942  16.8033 12.62796812779443
GLOBALSTAR M079         
1 37188U 10054A   24232.55441936 -.00000076  00000+0  15617-3 0  9993
2 37188  52.0064 338.0065 0000591  85.7146 287.0659 12.62262776639047
GLOBALSTAR M074         
1 37189U 10054B   24232.58092924 -.00000076  00000+0  15275-3 0  9996
2 37189  52.0043 337.2945 0000683 108.8078 264.7389 12.62271414639047
GLOBALSTAR M076         
1 37190U 10054C   24232.60752676 -.00000083  00000+0  11773-3 0  9995
2 37190  52.0053 337.3599 0000965  85.4852 287.3094 12.62255315638695
GLOBALSTAR M077         
1 37191U 10054D   24232.43590442 -.00000056  00000+0  26927-3 0  9995
2 37191  52.0074 294.6516 0000505 120.5000 253.0847 12.62262745639040
